CUBEBUG-2 (LO-74)       
1 39440U 13066AA  26185.27779390  .00005912  00000+0  54421-3 0  9997
2 39440  97.8916 134.3300 0056467 332.5565  27.2675 14.93908765679545
FUNCUBE-1 (AO-73)       
1 39444U 13066AE  26185.15812842  .00008874  00000+0  54563-3 0  9995
2 39444  97.8284 156.9608 0037373 143.7626 216.6145 15.09700275682222
UWE-3                   
1 39446U 13066AG  26185.12555732  .00003910  00000+0  33627-3 0  9990
2 39446  97.8706 141.3160 0047264 263.1335  96.4508 14.97148149680113
UNISAT-6                
1 40012U 14033C   26185.14312573  .00002877  00000+0  31126-3 0  9995
2 40012  97.7902 337.5585 0045121  14.4000 345.8491 14.88329213648688
DUCHIFAT-1              
1 40021U 14033M   26184.69623055  .00145426  00000+0  12812-2 0  9992
2 40021  98.0432 246.2208 0000321 267.7040  92.4182 15.68277261658337
QB50P1                  
1 40025U 14033R   26185.28430676  .00010923  00000+0  53186-3 0  9990
2 40025  98.0964 197.6317 0009592 157.2426 202.9233 15.18529559655620
LILACSAT-2              
1 40908U 15049K   26185.29683457  .00023919  00000+0  39777-3 0  9995
2 40908  97.4621 222.7929 0007362 175.2032 184.9292 15.52030897598404
FOX-1A (AO-85)          
1 40967U 15058D   26185.12083989  .00002883  00000+0  26143-3 0  9996
2 40967  64.7734 226.3568 0131532  50.0240 311.2334 14.91042511116099
CAS-2T & KS-1Q          
1 41847U 16066G   26185.13969905  .00001671  00000+0  24051-3 0  9996
2 41847  98.3816 260.6820 0342755  78.2177 285.7245 14.44749429507242
RADFXSAT (FOX-1B)       
1 43017U 17073E   26185.07439523  .00007880  00000+0  34433-3 0  9990
2 43017  97.4676  51.9443 0148129 270.3124  88.1134 15.12944188467944
DIWATA-2B               
1 43678U 18084H   26185.24153946  .00002090  00000+0  17075-3 0  9998
2 43678  98.1203  22.1941 0013088 117.4096 242.8460 15.00525882418779
ES'HAIL 2               
1 43700U 18090A   26185.22728404  .00000156  00000+0  00000+0 0  9993
2 43700   0.0141  51.7141 0002287  88.6768 249.4707  1.00273695 27840
FOX-1CLIFF (AO-95)      
1 43770U 18099N   26185.11680476  .00015402  00000+0  58164-3 0  9991
2 43770  97.4372 245.3036 0006932 287.7231  72.3251 15.27076980415801
ITASAT                  
1 43786U 18099AE  26185.08150136  .00008560  00000+0  40836-3 0  9993
2 43786  97.4012 236.2572 0010797 295.5578  64.4540 15.19269626415476
JY1SAT (JO-97)          
1 43803U 18099AX  26185.12210852  .00023140  00000+0  69954-3 0  9993
2 43803  97.4120 248.0201 0005813 193.8667 166.2417 15.34211411416222
UWE-4                   
1 43880U 18111E   26184.77810918  .00037119  00000+0  73007-3 0  9997
2 43880  97.5844 113.9454 0004479 247.9507 112.1267 15.47173559413349
TIANYAN 01              
1 44881U 19093C   26185.27662295  .00000657  00000+0  80075-4 0  9999
2 44881  97.7524 257.0916 0014444  35.7795 324.4386 14.86545176353956
RS-44 & BREEZE-KM R/B   
1 44909U 19096E   26184.81410290  .00000013  00000+0 -17167-5 0  9998
2 44909  82.5235 328.6557 0218578 105.4674 257.0682 12.79748962304470
SALSAT                  
1 46495U 20068K   26184.95457312  .00009251  00000+0  32069-3 0  9990
2 46495  97.8853 189.0427 0008159 236.6445 123.4014 15.30040776317924
XW-3 (CAS-9)            
1 50466U 21131B   26185.27047980  .00000502  00000+0  16847-3 0  9993
2 50466  98.4989 277.5680 0005132  58.0020 302.1667 14.41373323237571
GREENCUBE (IO-117)      
1 53109U 22080E   26184.68175866 -.00000003  00000+0  00000+0 0  9990
2 53109  70.1436 292.5090 0008960 286.0340  73.9332  6.42583230 93129
UMKA 1 (RS40S)          
1 57172U 23091G   26185.19984623  .00007793  00000+0  35342-3 0  9996
2 57172  97.5037 243.8328 0013958  64.9174 295.3508 15.21021221166598
CUBESX-HSE 3 (RS42S)    
1 57178U 23091N   26184.96649194  .00016476  00000+0  54024-3 0  9993
2 57178  97.5080 250.7696 0010879  41.2917 318.9145 15.31646892166990
MONITOR-3 (RS58S)       
1 57180U 23091Q   26185.15938417  .00013554  00000+0  49465-3 0  9994
2 57180  97.5071 248.7329 0012143  47.2071 313.0187 15.28192372166881
MONITOR-4 (RS57S)       
1 57182U 23091S   26185.20297597  .00014373  00000+0  52293-3 0  9992
2 57182  97.5064 248.7488 0012124  47.3732 312.8527 15.28278388166893
MONITOR-2 (RS39S)       
1 57184U 23091U   26185.17677653  .00006568  00000+0  31583-3 0  9991
2 57184  97.5059 243.3507 0012338  59.2950 300.9498 15.19073458166530
SVYATOBOR 1 (RS60S)     
1 57187U 23091X   26185.16542786  .00011685  00000+0  44409-3 0  9998
2 57187  97.5076 249.0787 0009881  41.9978 318.2017 15.26911187166900
VIZARD-METEO (RS38S)    
1 57189U 23091Z   26185.14765156  .00022338  00000+0  62643-3 0  9993
2 57189  97.5080 254.9782 0006737  22.5263 337.6276 15.36578173167296
POLYTECH-UNIVERSE 3 (R*)
1 57191U 23091AB  26185.20168868  .00006346  00000+0  30298-3 0  9992
2 57191  97.5034 242.8796 0016860  73.0746 287.2336 15.19282399166530
UTMN 2 (RS27S)          
1 57203U 23091AP  26185.17087463  .00017162  00000+0  54866-3 0  9998
2 57203  97.5075 252.6310 0007924  30.1659 330.0038 15.32478481167146
